SKYSAT-C1               
1 41601U 16040C   26166.58798459  .00007663  00000+0  21875-3 0  9996
2 41601  96.9559 198.3944 0003624  61.3006 298.8603 15.36278252557628
LAPAN-A3                
1 41603U 16040E   26166.62468461  .00003014  00000+0  96456-4 0  9994
2 41603  97.1486 162.8217 0011078  30.9973 329.1921 15.33095830554576
GAOFEN-3                
1 41727U 16049A   26166.62703808 -.00000056  00000+0 -38202-5 0  9998
2 41727  98.4004 174.4363 0001347  99.0402 261.0940 14.42215030518429
SKYSAT-C4               
1 41771U 16058B   26166.58743262  .00013775  00000+0  26017-3 0  9999
2 41771  96.9167 188.4267 0001252 130.8616 229.2744 15.48542218545229
SKYSAT-C5               
1 41772U 16058C   26166.60405131  .00006505  00000+0  19719-3 0  9997
2 41772  97.0468 207.3150 0001205 329.0533  31.0640 15.34451287543509
SKYSAT-C2               
1 41773U 16058D   26166.57220096  .00010030  00000+0  23678-3 0  9996
2 41773  97.0162 188.7278 0004788  73.9806 286.1969 15.42039369544804
SKYSAT-C3               
1 41774U 16058E   26166.59645486  .00018669  00000+0  30624-3 0  9998
2 41774  96.9001 197.5043 0001559  93.2820 266.8612 15.52479739545864
ALSAT-1B                
1 41785U 16059C   26166.60905914  .00000442  00000+0  77371-4 0  9999
2 41785  97.7745 175.4405 0007987 226.3317 133.7230 14.72274427520340
PATHFINDER 1            
1 41787U 16059E   26166.56846108  .00000474  00000+0  91077-4 0  9999
2 41787  97.8166 165.9178 0027666 208.8688 151.0988 14.67661483519474
SCATSAT 1               
1 41790U 16059H   26166.45487567  .00000924  00000+0  12826-3 0  9995
2 41790  98.1191 230.2030 0053321 253.2225 106.3132 14.79522111101334
GOKTURK 1A              
1 41875U 16073A   26166.60404216  .00000117  00000+0  32027-4 0  9992
2 41875  98.1262  61.3038 0001452  77.5067 282.6297 14.62772864508590
RESOURCESAT-2A          
1 41877U 16074A   26166.59277223  .00000414  00000+0  20893-3 0  9996
2 41877  98.7534 240.1100 0003358  86.9087 273.2475 14.21617307494076
CARTOSAT-2D             
1 41948U 17008A   26166.64356994  .00003888  00000+0  18726-3 0  9992
2 41948  97.4111 225.9784 0003834 235.9628 124.1243 15.19324918517341
SENTINEL-2B             
1 42063U 17013A   26166.59909872  .00000432  00000+0  18150-3 0  9993
2 42063  98.5699 241.3958 0001185  85.7279 274.4040 14.30817832484417
CARTOSAT-2E             
1 42767U 17036C   26166.59554367  .00002522  00000+0  12291-3 0  9996
2 42767  97.4280 226.4242 0002581 329.4694  30.6390 15.19242514497907
FORMOSAT-5              
1 42920U 17049A   26166.46674609  .00000132  00000+0  44552-4 0  9990
2 42920  98.2254 241.8146 0012701  89.1024 271.1627 14.50898275466427
SENTINEL-5P             
1 42969U 17064A   26166.58070278  .00000037  00000+0  38538-4 0  9996
2 42969  98.7925 108.7233 0000965  84.3504 275.7782 14.19518714449332
SKYSAT-C11              
1 42987U 17068A   26166.38722227  .00023728  00000+0  32000-3 0  9995
2 42987  97.4347 315.1395 0000710  84.8700 275.2637 15.57812298482967
SKYSAT-C10              
1 42988U 17068B   26166.33621502  .00007617  00000+0  22955-3 0  9992
2 42988  97.4505 303.1648 0001146  94.4508 265.6866 15.34611051482077
SKYSAT-C9               
1 42989U 17068C   26166.35650148  .00010389  00000+0  24931-3 0  9999
2 42989  97.4425 304.1026 0009335 138.7533 221.4420 15.41521994482472
SKYSAT-C8               
1 42990U 17068D   26166.31037966  .00008508  00000+0  23779-3 0  9993
2 42990  97.4522 302.9315 0001473  97.1618 262.9793 15.36944191482022
SKYSAT-C7               
1 42991U 17068E   26166.62947870  .00008754  00000+0  24476-3 0  9990
2 42991  97.4533 304.2441 0007190 110.9865 249.2150 15.36899671482139
SKYSAT-C6               
1 42992U 17068F   26166.38574799  .00007751  00000+0  23666-3 0  9996
2 42992  97.4566 303.9735 0004351 142.3114 217.8434 15.34183362482047
CARTOSAT-2F             
1 43111U 18004A   26166.62768041  .00004774  00000+0  23004-3 0  9991
2 43111  97.4796 226.2775 0000547 220.7349 139.3845 15.19208021467096
GAOFEN-1 02             
1 43259U 18031A   26166.60422675  .00001001  00000+0  15129-3 0  9991
2 43259  98.0533 229.1358 0003938  38.1172 322.0316 14.76455859442469
GAOFEN-1 03             
1 43260U 18031B   26166.58238903  .00000613  00000+0  95435-4 0  9996
2 43260  98.0524 228.9726 0003777  82.2902 277.8737 14.76466968442455
GAOFEN-1 04             
1 43262U 18031D   26166.62583190  .00001114  00000+0  16736-3 0  9997
2 43262  98.0535 229.2064 0002261  83.1629 276.9837 14.76479561442455
SENTINEL-3B             
1 43437U 18039A   26166.43645842  .00000065  00000+0  45013-4 0  9996
2 43437  98.6250 233.9938 0000742  85.5987 274.5279 14.26734189423870
GAOFEN-5 01             
1 43461U 18043A   26166.48610975  .00000272  00000+0  65958-4 0  9992
2 43461  98.4568 138.0366 0003032  86.4061 273.7485 14.60604379431442
GAOFEN-6                
1 43484U 18048A   26166.51256841  .00000537  00000+0  84032-4 0  9992
2 43484  97.8710 229.3018 0011926 172.7741 187.3644 14.76598202433142
