OBJECT_NAME,OBJECT_ID,EPOCH,MEAN_MOTION,ECCENTRICITY,INCLINATION,RA_OF_ASC_NODE,ARG_OF_PERICENTER,MEAN_ANOMALY,EPHEMERIS_TYPE,CLASSIFICATION_TYPE,NORAD_CAT_ID,ELEMENT_SET_NO,REV_AT_EPOCH,BSTAR,MEAN_MOTION_DOT,MEAN_MOTION_DDOT
SKYSAT-C1,2016-040C,2026-06-15T14:06:41.868576,15.36278252,.00036246,96.9559,198.3944,61.3006,298.8603,0,U,41601,999,55762,.21875141E-3,.7663E-4,0
LAPAN-A3,2016-040E,2026-06-15T14:59:32.750304,15.33095830,.00110781,97.1486,162.8217,30.9973,329.1921,0,U,41603,999,55457,.96456302E-4,.3014E-4,0
GAOFEN-3,2016-049A,2026-06-15T15:02:56.090112,14.42215030,.00013473,98.4004,174.4363,99.0402,261.0940,0,U,41727,999,51842,-.3820152E-5,-.56E-6,0
SKYSAT-C4,2016-058B,2026-06-15T14:05:54.178368,15.48542218,.0001252,96.9167,188.4267,130.8616,229.2744,0,U,41771,999,54522,.26017366E-3,.13775E-3,0
SKYSAT-C5,2016-058C,2026-06-15T14:29:50.033184,15.34451287,.00012053,97.0468,207.3150,329.0533,31.0640,0,U,41772,999,54350,.19718706E-3,.6505E-4,0
SKYSAT-C2,2016-058D,2026-06-15T13:43:58.162944,15.42039369,.00047885,97.0162,188.7278,73.9806,286.1969,0,U,41773,999,54480,.23677657E-3,.1003E-3,0
SKYSAT-C3,2016-058E,2026-06-15T14:18:53.699904,15.52479739,.00015599,96.9001,197.5043,93.2820,266.8612,0,U,41774,999,54586,.30623836E-3,.18669E-3,0
ALSAT-1B,2016-059C,2026-06-15T14:37:02.709696,14.72274427,.00079873,97.7745,175.4405,226.3317,133.7230,0,U,41785,999,52034,.77370968E-4,.442E-5,0
PATHFINDER 1,2016-059E,2026-06-15T13:38:35.037312,14.67661483,.00276668,97.8166,165.9178,208.8688,151.0988,0,U,41787,999,51947,.91077435E-4,.474E-5,0
SCATSAT 1,2016-059H,2026-06-15T10:55:01.257888,14.79522111,.0053321,98.1191,230.2030,253.2225,106.3132,0,U,41790,999,10133,.12826248E-3,.924E-5,0
GOKTURK 1A,2016-073A,2026-06-15T14:29:49.242624,14.62772864,.00014529,98.1262,61.3038,77.5067,282.6297,0,U,41875,999,50859,.32027445E-4,.117E-5,0
RESOURCESAT-2A,2016-074A,2026-06-15T14:13:35.520672,14.21617307,.00033583,98.7534,240.1100,86.9087,273.2475,0,U,41877,999,49407,.20893371E-3,.414E-5,0
CARTOSAT-2D,2017-008A,2026-06-15T15:26:44.442816,15.19324918,.00038344,97.4111,225.9784,235.9628,124.1243,0,U,41948,999,51734,.18725896E-3,.3888E-4,0
SENTINEL-2B,2017-013A,2026-06-15T14:22:42.129408,14.30817832,.00011856,98.5699,241.3958,85.7279,274.4040,0,U,42063,999,48441,.18149627E-3,.432E-5,0
CARTOSAT-2E,2017-036C,2026-06-15T14:17:34.973088,15.19242514,.00025815,97.4280,226.4242,329.4694,30.6390,0,U,42767,999,49790,.12291362E-3,.2522E-4,0
FORMOSAT-5,2017-049A,2026-06-15T11:12:06.862176,14.50898275,.0012701,98.2254,241.8146,89.1024,271.1627,0,U,42920,999,46642,.44552102E-4,.132E-5,0
SENTINEL-5P,2017-064A,2026-06-15T13:56:12.720192,14.19518714,.00009656,98.7925,108.7233,84.3504,275.7782,0,U,42969,999,44933,.38537924E-4,.37E-6,0
SKYSAT-C11,2017-068A,2026-06-15T09:17:36.004128,15.57812298,.000071,97.4347,315.1395,84.8700,275.2637,0,U,42987,999,48296,.31999878E-3,.23728E-3,0
SKYSAT-C10,2017-068B,2026-06-15T08:04:08.977728,15.34611051,.00011466,97.4505,303.1648,94.4508,265.6866,0,U,42988,999,48207,.22955183E-3,.7617E-4,0
SKYSAT-C9,2017-068C,2026-06-15T08:33:21.727872,15.41521994,.00093353,97.4425,304.1026,138.7533,221.4420,0,U,42989,999,48247,.24930757E-3,.10389E-3,0
SKYSAT-C8,2017-068D,2026-06-15T07:26:56.802624,15.36944191,.00014733,97.4522,302.9315,97.1618,262.9793,0,U,42990,999,48202,.23778557E-3,.8508E-4,0
SKYSAT-C7,2017-068E,2026-06-15T15:06:26.959680,15.36899671,.00071902,97.4533,304.2441,110.9865,249.2150,0,U,42991,999,48213,.24475996E-3,.8754E-4,0
SKYSAT-C6,2017-068F,2026-06-15T09:15:28.626336,15.34183362,.00043513,97.4566,303.9735,142.3114,217.8434,0,U,42992,999,48204,.23665576E-3,.7751E-4,0
CARTOSAT-2F,2018-004A,2026-06-15T15:03:51.587424,15.19208021,.0000547,97.4796,226.2775,220.7349,139.3845,0,U,43111,999,46709,.23004112E-3,.4774E-4,0
GAOFEN-1 02,2018-031A,2026-06-15T14:30:05.191200,14.76455859,.00039381,98.0533,229.1358,38.1172,322.0316,0,U,43259,999,44246,.15129329E-3,.1001E-4,0
GAOFEN-1 03,2018-031B,2026-06-15T13:58:38.412192,14.76466968,.00037774,98.0524,228.9726,82.2902,277.8737,0,U,43260,999,44245,.95434646E-4,.613E-5,0
GAOFEN-1 04,2018-031D,2026-06-15T15:01:11.876160,14.76479561,.00022617,98.0535,229.2064,83.1629,276.9837,0,U,43262,999,44245,.16735927E-3,.1114E-4,0
SENTINEL-3B,2018-039A,2026-06-15T10:28:30.007488,14.26734189,.0000742,98.6250,233.9938,85.5987,274.5279,0,U,43437,999,42387,.45012949E-4,.65E-6,0
GAOFEN-5 01,2018-043A,2026-06-15T11:39:59.882400,14.60604379,.00030323,98.4568,138.0366,86.4061,273.7485,0,U,43461,999,43144,.65957952E-4,.272E-5,0
GAOFEN-6,2018-048A,2026-06-15T12:18:05.910624,14.76598202,.00119261,97.8710,229.3018,172.7741,187.3644,0,U,43484,999,43314,.84031969E-4,.537E-5,0
